NORAD_CAT_ID,OBJECT_NAME,OBJECT_TYPE,EPOCH,MEAN_MOTION,ECCENTRICITY,INCLINATION,RA_OF_ASC_NODE,ARG_OF_PERICENTER,MEAN_ANOMALY,BSTAR,MEAN_MOTION_DOT,MEAN_MOTION_DDOT,TLE_LINE0,TLE_LINE1,TLE_LINE2,SEMIMAJOR_AXIS,PERIOD,APOGEE,PERIGEE,DECAYED
53832.0,STARLINK-4747,PAYLOAD,2023-02-09 22:02:17,15.08846783,7.35e-05,53.2178,308.6723,116.5242,243.5825,0.0014591,0.00023014,0.0,0 STARLINK-4747,1 53832U 22114Q   23040.91826028  .00023014  00000-0  14591-2 0  9998,2 53832  53.2178 308.6723 0000735 116.5242 243.5825 15.08846783 22647,6917.86,95.437,540.233,539.216,0.0
53832.0,STARLINK-4747,PAYLOAD,2023-02-10 02:48:27,15.08860993,5.13e-05,53.2174,307.7808,59.2846,300.8196,0.0015839,0.00025024,0.0,0 STARLINK-4747,1 53832U 22114Q   23041.11697942  .00025024  00000-0  15839-2 0  9991,2 53832  53.2174 307.7808 0000513  59.2846 300.8196 15.08860993 23215,6917.816,95.436,540.036,539.326,0.0
53832.0,STARLINK-4747,PAYLOAD,2023-02-10 23:28:27,15.08859084,2.32e-05,53.2177,303.9161,86.7339,273.368,0.0014507,0.00022887,0.0,0 STARLINK-4747,1 53832U 22114Q   23041.97809762  .00022887  00000-0  14507-2 0  9995,2 53832  53.2177 303.9161 0000232  86.7339 273.3680 15.08859084 22803,6917.822,95.436,539.848,539.527,0.0
53832.0,STARLINK-4747,PAYLOAD,2023-02-11 01:03:50,15.08875051,6.37e-05,53.2175,303.619,87.3796,272.7269,0.0022201,0.00035256,0.0,0 STARLINK-4747,1 53832U 22114Q   23042.04433593  .00035256  00000-0  22201-2 0  9993,2 53832  53.2175 303.6190 0000637  87.3796 272.7269 15.08875051 22812,6917.773,95.435,540.079,539.198,0.0
53832.0,STARLINK-4747,PAYLOAD,2023-02-11 16:57:42,15.08843113,8.71e-05,53.2178,300.6415,102.5395,257.5695,0.0020726,0.00032854,0.0,0 STARLINK-4747,1 53832U 22114Q   23042.70674196  .00032854  00000-0  20726-2 0  9993,2 53832  53.2178 300.6415 0000871 102.5395 257.5695 15.08843113 23456,6917.871,95.437,540.338,539.133,0.0
53832.0,STARLINK-4747,PAYLOAD,2023-02-11 23:19:15,15.08845622,9.92e-05,53.218,299.4529,81.2712,278.8393,0.0011847,0.0001862,0.0,0 STARLINK-4747,1 53832U 22114Q   23042.97170234  .00018620  00000-0  11847-2 0  9995,2 53832  53.2180 299.4529 0000992  81.2712 278.8393 15.08845622 22952,6917.863,95.437,540.414,539.042,0.0
53832.0,STARLINK-4747,PAYLOAD,2023-02-12 02:30:01,15.08855129,9.22e-05,53.2175,298.8604,68.1974,291.9116,0.0020002,0.00031702,0.0,0 STARLINK-4747,1 53832U 22114Q   23043.10417909  .00031702  00000-0  20002-2 0  9993,2 53832  53.2175 298.8604 0000922  68.1974 291.9116 15.08855129 22974,6917.834,95.437,540.337,539.061,0.0
53832.0,STARLINK-4747,PAYLOAD,2023-02-12 23:10:02,15.08844877,0.0001697,53.2172,294.9943,92.3261,267.7926,0.0014275,0.00022507,0.0,0 STARLINK-4747,1 53832U 22114Q   23043.96531020  .00022507  00000-0  14275-2 0  9996,2 53832  53.2172 294.9943 0001697  92.3261 267.7926 15.08844877 23106,6917.865,95.437,540.904,538.557,0.0
53832.0,STARLINK-4747,PAYLOAD,2023-02-13 02:20:49,15.0884533,0.0001571,53.2168,294.3999,93.9439,266.1732,0.0013974,0.00022025,0.0,0 STARLINK-4747,1 53832U 22114Q   23044.09779021  .00022025  00000-0  13974-2 0  9996,2 53832  53.2168 294.3999 0001571  93.9439 266.1732 15.08845330 23665,6917.864,95.437,540.816,538.642,0.0
53832.0,STARLINK-4747,PAYLOAD,2023-02-14 02:11:36,15.08856107,0.0001092,53.218,289.9383,74.5137,285.5976,0.0015499,0.00024476,0.0,0 STARLINK-4747,1 53832U 22114Q   23045.09139407  .00024476  00000-0  15499-2 0  9991,2 53832  53.2180 289.9383 0001092  74.5137 285.5976 15.08856107 23270,6917.831,95.437,540.452,538.941,0.0
53832.0,STARLINK-4747,PAYLOAD,2023-02-14 16:30:04,15.08853009,0.0001407,53.2148,287.2611,80.0735,280.0416,0.0011462,0.00018007,0.0,0 STARLINK-4747,1 53832U 22114Q   23045.68755457  .00018007  00000-0  11462-2 0  9994,2 53832  53.2148 287.2611 0001407  80.0735 280.0416 15.08853009 23362,6917.841,95.437,540.679,538.732,0.0
53832.0,STARLINK-4747,PAYLOAD,2023-02-14 22:51:37,15.08851743,0.0001305,53.2168,286.0713,77.9051,282.2087,0.00060284,9.322e-05,0.0,0 STARLINK-4747,1 53832U 22114Q   23045.95251258  .00009322  00000-0  60284-3 0  9991,2 53832  53.2168 286.0713 0001305  77.9051 282.2087 15.08851743 23403,6917.844,95.437,540.612,538.807,0.0
53832.0,STARLINK-4747,PAYLOAD,2023-02-15 21:06:59,15.08885958,0.0001001,53.2163,281.9082,74.7802,285.33,0.0013323,0.00021006,0.0,0 STARLINK-4747,1 53832U 22114Q   23046.87985889  .00021006  00000-0  13323-2 0  9991,2 53832  53.2163 281.9082 0001001  74.7802 285.3300 15.08885958 24085,6917.74,95.435,540.297,538.912,0.0
53832.0,STARLINK-4747,PAYLOAD,2023-02-16 00:17:45,15.08894772,0.0001264,53.2183,281.3163,83.8582,276.2554,0.0015574,0.00024622,0.0,0 STARLINK-4747,1 53832U 22114Q   23047.01233186  .00024622  00000-0  15574-2 0  9991,2 53832  53.2183 281.3163 0001264  83.8582 276.2554 15.08894772 23564,6917.713,95.434,540.452,538.704,0.0
53832.0,STARLINK-4747,PAYLOAD,2023-02-16 08:14:41,15.08856467,0.0001177,53.2161,279.8268,89.4499,270.6628,-0.00019546,-3.399e-05,0.0,0 STARLINK-4747,1 53832U 22114Q   23047.34353314 -.00003399  00000-0 -19546-3 0  9997,2 53832  53.2161 279.8268 0001177  89.4499 270.6628 15.08856467 23615,6917.83,95.437,540.509,538.881,0.0
53832.0,STARLINK-4747,PAYLOAD,2023-02-17 00:08:33,15.08833368,0.0001302,53.2164,276.8544,93.1864,266.9277,-0.00030625,-5.158e-05,0.0,0 STARLINK-4747,1 53832U 22114Q   23048.00594200 -.00005158  00000-0 -30625-3 0  9998,2 53832  53.2164 276.8544 0001302  93.1864 266.9277 15.08833368 23714,6917.901,95.438,540.666,538.865,0.0
53832.0,STARLINK-4747,PAYLOAD,2023-02-17 08:05:29,15.08830062,0.0001448,53.2162,275.3672,88.4547,271.6611,-0.00011589,-2.131e-05,0.0,0 STARLINK-4747,1 53832U 22114Q   23048.33714620 -.00002131  00000-0 -11589-3 0  9990,2 53832  53.2162 275.3672 0001448  88.4547 271.6611 15.08830062 24303,6917.911,95.438,540.777,538.774,0.0
53832.0,STARLINK-4747,PAYLOAD,2023-02-17 20:48:35,15.08815905,0.0001066,53.2162,272.9886,103.1697,256.9414,2.294e-05,7.7e-07,0.0,0 STARLINK-4747,1 53832U 22114Q   23048.86707769  .00000077  00000-0  22940-4 0  9993,2 53832  53.2162 272.9886 0001066 103.1697 256.9414 15.08815905 24384,6917.954,95.439,540.556,539.082,0.0
53832.0,STARLINK-4747,PAYLOAD,2023-02-17 22:23:58,15.08817005,0.0001232,53.2169,272.6944,98.0306,262.0826,0.00018076,2.588e-05,0.0,0 STARLINK-4747,1 53832U 22114Q   23048.93331966  .00002588  00000-0  18076-3 0  9996,2 53832  53.2169 272.6944 0001232  98.0306 262.0826 15.08817005 23856,6917.951,95.439,540.668,538.963,0.0
53832.0,STARLINK-4747,PAYLOAD,2023-02-18 14:17:50,15.08834633,0.0001151,53.2163,269.717,95.448,264.6643,0.00058675,9.061e-05,0.0,0 STARLINK-4747,1 53832U 22114Q   23049.59572309  .00009061  00000-0  58675-3 0  9999,2 53832  53.2163 269.7170 0001151  95.4480 264.6643 15.08834633 24494,6917.897,95.438,540.558,538.966,0.0
53832.0,STARLINK-4747,PAYLOAD,2023-02-18 20:39:22,15.0884907,0.0001115,53.2161,268.5295,97.0896,263.0223,0.00099371,0.00015566,0.0,0 STARLINK-4747,1 53832U 22114Q   23049.86068135  .00015566  00000-0  99371-3 0  9991,2 53832  53.2161 268.5295 0001115  97.0896 263.0223 15.08849070 23998,6917.853,95.437,540.489,538.946,0.0
53832.0,STARLINK-4747,PAYLOAD,2023-02-19 14:08:37,15.08849342,0.0001105,53.2152,265.2581,91.9736,268.1383,0.00038254,5.807e-05,0.0,0 STARLINK-4747,1 53832U 22114Q   23050.58931894  .00005807  00000-0  38254-3 0  9993,2 53832  53.2152 265.2581 0001105  91.9736 268.1383 15.08849342 24104,6917.852,95.437,540.481,538.952,0.0
53832.0,STARLINK-4747,PAYLOAD,2023-02-20 13:59:23,15.08848524,0.0001148,53.2151,260.7971,88.3123,271.8,0.00017174,2.447e-05,0.0,0 STARLINK-4747,1 53832U 22114Q   23051.58291459  .00002447  00000-0  17174-3 0  9995,2 53832  53.2151 260.7971 0001148  88.3123 271.8000 15.08848524 24257,6917.854,95.437,540.514,538.925,0.0
53832.0,STARLINK-4747,PAYLOAD,2023-02-21 13:50:10,15.08843943,0.0001351,53.2145,256.3359,87.085,273.0296,3.9034e-05,3.33e-06,0.0,0 STARLINK-4747,1 53832U 22114Q   23052.57651318  .00000333  00000-0  39034-4 0  9991,2 53832  53.2145 256.3359 0001351  87.0850 273.0296 15.08843943 24408,6917.868,95.437,540.668,538.799,0.0
53832.0,STARLINK-4747,PAYLOAD,2023-02-21 20:11:43,15.08846088,0.0001161,53.2171,255.1474,89.0261,271.0864,6.8117e-05,7.97e-06,0.0,0 STARLINK-4747,1 53832U 22114Q   23052.84147127  .00000797  00000-0  68117-4 0  9997,2 53832  53.2171 255.1474 0001161  89.0261 271.0864 15.08846088 24984,6917.862,95.437,540.53,538.924,0.0
53832.0,STARLINK-4747,PAYLOAD,2023-02-22 13:40:58,15.08837694,0.0001212,53.2152,251.8743,90.8944,269.2187,4.2912e-06,-2.2e-06,0.0,0 STARLINK-4747,1 53832U 22114Q   23053.57011632 -.00000220  00000-0  42912-5 0  9997,2 53832  53.2152 251.8743 0001212  90.8944 269.2187 15.08837694 25093,6917.887,95.438,540.591,538.914,0.0
53832.0,STARLINK-4747,PAYLOAD,2023-02-22 20:02:30,15.08842841,0.000127,53.2161,250.6837,92.9217,267.1921,5.0348e-05,5.14e-06,0.0,0 STARLINK-4747,1 53832U 22114Q   23053.83507164  .00000514  00000-0  50348-4 0  9992,2 53832  53.2161 250.6837 0001270  92.9217 267.1921 15.08842841 24591,6917.872,95.437,540.615,538.858,0.0
53832.0,STARLINK-4747,PAYLOAD,2023-02-22 21:37:53,15.08843077,0.0001311,53.2155,250.3884,92.1652,267.949,3.3943e-05,2.52e-06,0.0,0 STARLINK-4747,1 53832U 22114Q   23053.90131190  .00000252  00000-0  33943-4 0  9993,2 53832  53.2155 250.3884 0001311  92.1652 267.9490 15.08843077 25147,6917.871,95.437,540.643,538.829,0.0
53832.0,STARLINK-4747,PAYLOAD,2023-02-23 13:31:45,15.08837716,0.0001206,53.2166,247.4151,94.3545,265.7585,3.6463e-05,2.92e-06,0.0,0 STARLINK-4747,1 53832U 22114Q   23054.56371548  .00000292  00000-0  36463-4 0  9993,2 53832  53.2166 247.4151 0001206  94.3545 265.7585 15.08837716 24706,6917.887,95.438,540.587,538.918,0.0
53832.0,STARLINK-4747,PAYLOAD,2023-02-23 19:53:17,15.08842355,0.0001213,53.2167,246.2259,93.7201,266.393,6.6975e-05,7.78e-06,0.0,0 STARLINK-4747,1 53832U 22114Q   23054.82867203  .00000778  00000-0  66975-4 0  9990,2 53832  53.2167 246.2259 0001213  93.7201 266.3930 15.08842355 25283,6917.873,95.437,540.577,538.899,0.0
